$$SOE
2460154.500000000, A.D. 2023-Jul-29 00:00:00.0000, -3.586822831196196E+07, -4.595315039805943E+08, 1.058598185440016E+07,
2460161.500000000, A.D. 2023-Aug-05 00:00:00.0000, -2.571492048093500E+07, -4.616969030450207E+08, 1.030780856817576E+07,
2460168.500000000, A.D. 2023-Aug-12 00:00:00.0000, -1.554904339733005E+07, -4.636357995990227E+08, 1.002457939696762E+07,
2460175.500000000, A.D. 2023-Aug-19 00:00:00.0000, -5.375659319531746E+06, -4.653494099410719E+08, 9.736480239246726E+06,
2460182.500000000, A.D. 2023-Aug-26 00:00:00.0000, 4.800261451801372E+06, -4.668390499606882E+08, 9.443696095623434E+06,
2460189.500000000, A.D. 2023-Sep-02 00:00:00.0000, 1.497384122888167E+07, -4.681061304800147E+08, 9.146410953313023E+06,
2460196.500000000, A.D. 2023-Sep-09 00:00:00.0000, 2.514029541971353E+07, -4.691521528237124E+08, 8.844807667508304E+06,
2460203.500000000, A.D. 2023-Sep-16 00:00:00.0000, 3.529493301890524E+07, -4.699787046790205E+08, 8.539067819262087E+06,
2460210.500000000, A.D. 2023-Sep-23 00:00:00.0000, 4.543315753396785E+07, -4.705874559625264E+08, 8.229371534956515E+06,
2460217.500000000, A.D. 2023-Sep-30 00:00:00.0000, 5.555046801814666E+07, -4.709801535053952E+08, 7.915897395664006E+06,
2460224.500000000, A.D. 2023-Oct-07 00:00:00.0000, 6.564245786624368E+07, -4.711586151009241E+08, 7.598822607720017E+06,
2460231.500000000, A.D. 2023-Oct-14 00:00:00.0000, 7.570481242380811E+07, -4.711247262275530E+08, 7.278323068085223E+06,
2460238.500000000, A.D. 2023-Oct-21 00:00:00.0000, 8.573330864892790E+07, -4.708804378453069E+08, 6.954573159164190E+06,
2460245.500000000, A.D. 2023-Oct-28 00:00:00.0000, 9.572381541199870E+07, -4.704277630066705E+08, 6.627745588433683E+06,
2460252.500000000, A.D. 2023-Nov-04 00:00:00.0000, 1.056722931923396E+08, -4.697687730525014E+08, 6.298011324601620E+06,
2460259.500000000, A.D. 2023-Nov-11 00:00:00.0000, 1.155747933576934E+08, -4.689055939922838E+08, 5.965539564984798E+06,
2460266.500000000, A.D. 2023-Nov-18 00:00:00.0000, 1.254274572541773E+08, -4.678404031319535E+08, 5.630497708686829E+06,
2460273.500000000, A.D. 2023-Nov-25 00:00:00.0000, 1.352265151871923E+08, -4.665754259251370E+08, 5.293051330653936E+06,
2460280.500000000, A.D. 2023-Dec-02 00:00:00.0000, 1.449682853289830E+08, -4.651129330569914E+08, 4.953364152952731E+06,
2460287.500000000, A.D. 2023-Dec-09 00:00:00.0000, 1.546491726381333E+08, -4.634552378175077E+08, 4.611598001121491E+06,
2460294.500000000, A.D. 2023-Dec-16 00:00:00.0000, 1.642656680857459E+08, -4.616046937500271E+08, 4.267912720059335E+06,
2460301.500000000, A.D. 2023-Dec-23 00:00:00.0000, 1.738143485433092E+08, -4.595636918860921E+08, 3.922466073472649E+06,
2460308.500000000, A.D. 2023-Dec-30 00:00:00.0000, 1.832918759976704E+08, -4.573346565155950E+08, 3.575413835274875E+06,
2460315.500000000, A.D. 2024-Jan-06 00:00:00.0000, 1.926949943256505E+08, -4.549200418498884E+08, 3.226910042141825E+06,
2460322.500000000, A.D. 2024-Jan-13 00:00:00.0000, 2.020205268063935E+08, -4.523223313810433E+08, 2.877106967978269E+06,
2460329.500000000, A.D. 2024-Jan-20 00:00:00.0000, 2.112653756007028E+08, -4.495440368499918E+08, 2.526154959668607E+06,
2460336.500000000, A.D. 2024-Jan-27 00:00:00.0000, 2.204265211737060E+08, -4.465876961692504E+08, 2.174202373099297E+06,
2460343.500000000, A.D. 2024-Feb-03 00:00:00.0000, 2.295010212369226E+08, -4.434558712463941E+08, 1.821395570829004E+06,
2460350.500000000, A.D. 2024-Feb-10 00:00:00.0000, 2.384860094912186E+08, -4.401511459967579E+08, 1.467878931798339E+06,
2460357.500000000, A.D. 2024-Feb-17 00:00:00.0000, 2.473786943130811E+08, -4.366761245348015E+08, 1.113794860666454E+06,
2460364.500000000, A.D. 2024-Feb-24 00:00:00.0000, 2.561763574233770E+08, -4.330334295265863E+08, 7.592837943728268E+05,
2460371.500000000, A.D. 2024-Mar-02 00:00:00.0000, 2.648763525706892E+08, -4.292257007328073E+08, 4.044842002776861E+05,
2460378.500000000, A.D. 2024-Mar-09 00:00:00.0000, 2.734761043705421E+08, -4.252555938018269E+08, 4.953254773983359E+04,
2460385.500000000, A.D. 2024-Mar-16 00:00:00.0000, 2.819731076983237E+08, -4.211257791120082E+08, -3.054367672139406E+05,
2460392.500000000, A.D. 2024-Mar-23 00:00:00.0000, 2.903649275347548E+08, -4.168389395510990E+08, -6.602914441427588E+05,
2460399.500000000, A.D. 2024-Mar-30 00:00:00.0000, 2.986491970248755E+08, -4.123977672561368E+08, -1.014901044166654E+06,
2460406.500000000, A.D. 2024-Apr-06 00:00:00.0000, 3.068236140086758E+08, -4.078049626774819E+08, -1.369136798603356E+06,
2460413.500000000, A.D. 2024-Apr-13 00:00:00.0000, 3.148859395774775E+08, -4.030632351269569E+08, -1.722871717834443E+06,
2460420.500000000, A.D. 2024-Apr-20 00:00:00.0000, 3.228339977072015E+08, -3.981753021315684E+08, -2.075980694365323E+06,
2460427.500000000, A.D. 2024-Apr-27 00:00:00.0000, 3.306656744538077E+08, -3.931438881529443E+08, -2.428340506781369E+06,
2460434.500000000, A.D. 2024-May-04 00:00:00.0000, 3.383789168002261E+08, -3.879717233741118E+08, -2.779829790121406E+06,
2460441.500000000, A.D. 2024-May-11 00:00:00.0000, 3.459717313941169E+08, -3.826615426530704E+08, -3.130329002819300E+06,
2460448.500000000, A.D. 2024-May-18 00:00:00.0000, 3.534421832592471E+08, -3.772160846188332E+08, -3.479720395916224E+06,
2460455.500000000, A.D. 2024-May-25 00:00:00.0000, 3.607883945058527E+08, -3.716380909141286E+08, -3.827887987320781E+06,
2460462.500000000, A.D. 2024-Jun-01 00:00:00.0000, 3.680085431003699E+08, -3.659303056390315E+08, -4.174717551215157E+06,
2460469.500000000, A.D. 2024-Jun-08 00:00:00.0000, 3.751008619416426E+08, -3.600954750151864E+08, -4.520096646958098E+06,
2460476.500000000, A.D. 2024-Jun-15 00:00:00.0000, 3.820636386444316E+08, -3.541363467226918E+08, -4.863914679376677E+06,
2460483.500000000, A.D. 2024-Jun-22 00:00:00.0000, 3.888952150264627E+08, -3.480556677326859E+08, -5.206062801932842E+06,
2460490.500000000, A.D. 2024-Jun-29 00:00:00.0000, 3.955939841778600E+08, -3.418561824549290E+08, -5.546433616746545E+06,
2460497.500000000, A.D. 2024-Jul-06 00:00:00.0000, 4.021583877575947E+08, -3.355406336689169E+08, -5.884921115946949E+06,
2460504.500000000, A.D. 2024-Jul-13 00:00:00.0000, 4.085869154665148E+08, -3.291117634116507E+08, -6.221420812297642E+06,
2460511.500000000, A.D. 2024-Jul-20 00:00:00.0000, 4.148781047121337E+08, -3.225723126715045E+08, -6.555829783031240E+06,
2460518.500000000, A.D. 2024-Jul-27 00:00:00.0000, 4.210305398096579E+08, -3.159250208461165E+08, -6.888046645147905E+06,
2460525.500000000, A.D. 2024-Aug-03 00:00:00.0000, 4.270428509923347E+08, -3.091726253375701E+08, -7.217971517958641E+06,
2460532.500000000, A.D. 2024-Aug-10 00:00:00.0000, 4.329137133968816E+08, -3.023178612874850E+08, -7.545505988614529E+06,
2460539.500000000, A.D. 2024-Aug-17 00:00:00.0000, 4.386418460712188E+08, -2.953634614283354E+08, -7.870553083409756E+06,
2460546.500000000, A.D. 2024-Aug-24 00:00:00.0000, 4.442260110320857E+08, -2.883121560711768E+08, -8.193017249500990E+06,
2460553.500000000, A.D. 2024-Aug-31 00:00:00.0000, 4.496650124877792E+08, -2.811666732889636E+08, -8.512804362980738E+06,
2460560.500000000, A.D. 2024-Sep-07 00:00:00.0000, 4.549576965913724E+08, -2.739297391664963E+08, -8.829821786813244E+06,
2460567.500000000, A.D. 2024-Sep-14 00:00:00.0000, 4.601029518104268E+08, -2.666040771188459E+08, -9.143978405305475E+06,
2460574.500000000, A.D. 2024-Sep-21 00:00:00.0000, 4.650997078857005E+08, -2.591924058646145E+08, -9.455184415485471E+06,
2460581.500000000, A.D. 2024-Sep-28 00:00:00.0000, 4.699469328916081E+08, -2.516974392811357E+08, -9.763351094668403E+06,
2460588.500000000, A.D. 2024-Oct-05 00:00:00.0000, 4.746436320674959E+08, -2.441218881384260E+08, -1.006839088091232E+07,
2460595.500000000, A.D. 2024-Oct-12 00:00:00.0000, 4.791888480592316E+08, -2.364684607301559E+08, -1.037021748988429E+07,
2460602.500000000, A.D. 2024-Oct-19 00:00:00.0000, 4.835816608207163E+08, -2.287398626714779E+08, -1.066874592972048E+07,
2460609.500000000, A.D. 2024-Oct-26 00:00:00.0000, 4.878211871431864E+08, -2.209387966643174E+08, -1.096389247643010E+07,
2460616.500000000, A.D. 2024-Nov-02 00:00:00.0000, 4.919065800695873E+08, -2.130679623776668E+08, -1.125557464557485E+07,
2460623.500000000, A.D. 2024-Nov-09 00:00:00.0000, 4.958370282902780E+08, -2.051300564212523E+08, -1.154371116737875E+07,
2460630.500000000, A.D. 2024-Nov-16 00:00:00.0000, 4.996117555453071E+08, -1.971277724112467E+08, -1.182822196759519E+07,
2460637.500000000, A.D. 2024-Nov-23 00:00:00.0000, 5.032300200792108E+08, -1.890638011765817E+08, -1.210902816248665E+07,
2460644.500000000, A.D. 2024-Nov-30 00:00:00.0000, 5.066911143555141E+08, -1.809408311466959E+08, -1.238605209048337E+07,
2460651.500000000, A.D. 2024-Dec-07 00:00:00.0000, 5.099943654497731E+08, -1.727615484977441E+08, -1.265921738454933E+07,
2460658.500000000, A.D. 2024-Dec-14 00:00:00.0000, 5.131391354334779E+08, -1.645286358311875E+08, -1.292844892190192E+07,
2460665.500000000, A.D. 2024-Dec-21 00:00:00.0000, 5.161248194321987E+08, -1.562447706250237E+08, -1.319367253961473E+07,
2460672.500000000, A.D. 2024-Dec-28 00:00:00.0000, 5.189508433309351E+08, -1.479126264252676E+08, -1.345481493938790E+07,
2460679.500000000, A.D. 2025-Jan-04 00:00:00.0000, 5.216166637232408E+08, -1.395348744009371E+08, -1.371180382536552E+07,
2460686.500000000, A.D. 2025-Jan-11 00:00:00.0000, 5.241217682827628E+08, -1.311141836019121E+08, -1.396456797207114E+07,
2460693.500000000, A.D. 2025-Jan-18 00:00:00.0000, 5.264656756403682E+08, -1.226532208379327E+08, -1.421303721318488E+07,
2460700.500000000, A.D. 2025-Jan-25 00:00:00.0000, 5.286479350102595E+08, -1.141546506527235E+08, -1.445714241202378E+07,
2460707.500000000, A.D. 2025-Feb-01 00:00:00.0000, 5.306681257544271E+08, -1.056211354227069E+08, -1.469681543331695E+07,
2460714.500000000, A.D. 2025-Feb-08 00:00:00.0000, 5.325258569437584E+08, -9.705533555994096E+07, -1.493198911979247E+07,
2460721.500000000, A.D. 2025-Feb-15 00:00:00.0000, 5.342207669445900E+08, -8.845990983867736E+07, -1.516259727765950E+07,
$$EOE